{
  "updated": "2026-07-15T22:54:27.717Z",
  "capsules": {
    "66664": {
      "name": "SOYUZ-MS 28",
      "kind": "crew",
      "family": "soyuz",
      "phase": "docked",
      "stationKey": "iss",
      "since": "2026-07-03T10:34:14.509Z",
      "distanceKm": 0,
      "altitudeKm": 427.2,
      "inclinationDeg": 51.631,
      "l1": "1 66664U 25275A   26196.37932006  .00003801  00000+0  77082-4 0  9992",
      "l2": "2 66664  51.6310 160.5727 0006717 298.6245  61.4067 15.49014944575205"
    },
    "67796": {
      "name": "CREW DRAGON 12",
      "kind": "crew",
      "family": "dragon",
      "phase": "docked",
      "stationKey": "iss",
      "since": "2026-07-03T10:34:14.509Z",
      "distanceKm": 0.3,
      "altitudeKm": 427.2,
      "inclinationDeg": 51.631,
      "l1": "1 67796U 26031A   26196.37931993  .00004100  00000+0  82498-4 0  9994",
      "l2": "2 67796  51.6310 160.5727 0006709 298.6123  61.4190 15.49015729575162"
    },
    "68319": {
      "name": "PROGRESS-MS 33",
      "kind": "cargo",
      "family": "progress",
      "phase": "docked",
      "stationKey": "iss",
      "since": "2026-07-10T20:18:26.588Z",
      "distanceKm": 0,
      "altitudeKm": 427.2,
      "inclinationDeg": 51.631,
      "l1": "1 68319U 26058A   26196.37932006  .00003801  00000+0  77082-4 0  9991",
      "l2": "2 68319  51.6310 160.5727 0006717 298.6245  61.4067 15.49014944575248"
    },
    "68689": {
      "name": "CYGNUS NG-24",
      "kind": "cargo",
      "family": "cygnus",
      "phase": "docked",
      "stationKey": "iss",
      "since": "2026-07-10T20:18:26.588Z",
      "distanceKm": 0.3,
      "altitudeKm": 427.2,
      "inclinationDeg": 51.631,
      "l1": "1 68689U 26079A   26196.37931993  .00004100  00000+0  82498-4 0  9998",
      "l2": "2 68689  51.6310 160.5727 0006709 298.6123  61.4190 15.49015729575287"
    },
    "68837": {
      "name": "PROGRESS-MS 34",
      "kind": "cargo",
      "family": "progress",
      "phase": "docked",
      "stationKey": "iss",
      "since": "2026-07-10T20:18:26.588Z",
      "distanceKm": 0.3,
      "altitudeKm": 427.2,
      "inclinationDeg": 51.631,
      "l1": "1 68837U 26093A   26196.37931993  .00004100  00000+0  82498-4 0  9999",
      "l2": "2 68837  51.6310 160.5727 0006709 298.6123  61.4190 15.49015729575327"
    },
    "69049": {
      "name": "TIANZHOU-10",
      "kind": "cargo",
      "family": "tianzhou",
      "phase": "docked",
      "stationKey": "css",
      "since": "2026-07-10T20:18:26.588Z",
      "distanceKm": 0,
      "altitudeKm": 402.5,
      "inclinationDeg": 41.469,
      "l1": "1 69049U 26102A   26196.53543323  .00001219  00000+0  20014-4 0  9994",
      "l2": "2 69049  41.4690 149.7716 0002228 300.3824  59.6794 15.58093729297145"
    },
    "69180": {
      "name": "SHENZHOU-23 (SZ-23)",
      "kind": "crew",
      "family": "shenzhou",
      "phase": "docked",
      "stationKey": "css",
      "since": "2026-07-03T10:34:14.509Z",
      "distanceKm": 0,
      "altitudeKm": 402.5,
      "inclinationDeg": 41.469,
      "l1": "1 69180U 26113A   26196.53543323  .00001219  00000+0  20014-4 0  9992",
      "l2": "2 69180  41.4690 149.7716 0002228 300.3824  59.6794 15.58093729296870"
    }
  },
  "events": [
    {
      "id": "68319",
      "name": "PROGRESS-MS 33",
      "kind": "cargo",
      "family": "progress",
      "stationKey": "iss",
      "event": "launched",
      "at": "2026-07-10T20:18:26.588Z"
    },
    {
      "id": "68689",
      "name": "CYGNUS NG-24",
      "kind": "cargo",
      "family": "cygnus",
      "stationKey": "iss",
      "event": "launched",
      "at": "2026-07-10T20:18:26.588Z"
    },
    {
      "id": "68837",
      "name": "PROGRESS-MS 34",
      "kind": "cargo",
      "family": "progress",
      "stationKey": "iss",
      "event": "launched",
      "at": "2026-07-10T20:18:26.588Z"
    },
    {
      "id": "69049",
      "name": "TIANZHOU-10",
      "kind": "cargo",
      "family": "tianzhou",
      "stationKey": "css",
      "event": "launched",
      "at": "2026-07-10T20:18:26.588Z"
    }
  ]
}
